{
  "norad_id": 60124,
  "name": "STARLINK-11161 [DTC]",
  "history": [
    {
      "epoch": "2026-03-28T09:05:51.905472Z",
      "apogee_km": 360.4785513572551,
      "perigee_km": 358.9544488955262,
      "latitude_deg": -1.0659616898267845e-05,
      "longitude_deg": 167.2330521568198,
      "height_km": 360.29461952190775,
      "semi_major_axis_km": 6737.85350012639,
      "eccentricity": 0.0001131,
      "inclination_deg": 53.159,
      "raan_deg": 129.4997,
      "arg_perigee_deg": 63.8752,
      "mean_anomaly_deg": 296.2382,
      "mean_motion_rev_day": 15.69713582
    }
  ]
}