{"fetched_at":"2026-03-29T16:36:15Z","count":15609,"tles":[{"name":"STARLINK-11161 [DTC]","line1":"1 60124U 24118M   26087.37907298  .00002271  00000+0  23593-4 0  9994","line2":"2 60124  53.1590 129.4997 0001131  63.8752 296.2382 15.69713582100927","category":"Starlink"}]}